{
  "type": "FeatureCollection",
  "features": [
    {
      "type": "Feature",
      "properties": {
        "norad_id": 36744,
        "name": "COMS 1",
        "group": "weather",
        "lat": -4.179114747641677,
        "lon": -29.256035671630006,
        "alt_km": 35784.69650667592,
        "timestamp": "2025-12-20T07:33:50.443458+00:00",
        "meta_object_name": "COMS 1",
        "meta_object_id": "2010-032A",
        "meta_epoch": "2025-12-19T21:07:51.684384",
        "meta_mean_motion": 1.00272527,
        "meta_eccentricity": 6.759e-05,
        "meta_inclination": 4.3565,
        "meta_ra_of_asc_node": 77.9191,
        "meta_arg_of_pericenter": 201.7497,
        "meta_mean_anomaly": 254.194,
        "meta_ephemeris_type": 0,
        "meta_classification_type": "U",
        "meta_norad_cat_id": 36744,
        "meta_element_set_no": 999,
        "meta_rev_at_epoch": 4929,
        "meta_bstar": 0,
        "meta_mean_motion_dot": -3.23e-06,
        "meta_mean_motion_ddot": 0,
        "tle_line1": "1 36744U 10032A   25353.88045931 -.00000323  00000+0  00000+0 0  9993",
        "tle_line2": "2 36744   4.3565  77.9191 0000675 201.7497 254.1940  1.00272527 49296"
      },
      "geometry": {
        "type": "Point",
        "coordinates": [
          -29.256035671630006,
          -4.179114747641677
        ]
      }
    },
    {
      "type": "Feature",
      "properties": {
        "norad_id": 37214,
        "name": "FENGYUN 3B",
        "group": "weather",
        "lat": 74.29196147649098,
        "lon": 0.08876585650159513,
        "alt_km": 838.8357095816136,
        "timestamp": "2025-12-20T07:33:50.443470+00:00",
        "meta_object_name": "FENGYUN 3B",
        "meta_object_id": "2010-059A",
        "meta_epoch": "2025-12-19T23:16:42.206016",
        "meta_mean_motion": 14.14791901,
        "meta_eccentricity": 0.00217026,
        "meta_inclination": 98.9902,
        "meta_ra_of_asc_node": 33.9978,
        "meta_arg_of_pericenter": 337.1336,
        "meta_mean_anomaly": 142.3284,
        "meta_ephemeris_type": 0,
        "meta_classification_type": "U",
        "meta_norad_cat_id": 37214,
        "meta_element_set_no": 999,
        "meta_rev_at_epoch": 78208,
        "meta_bstar": 4.709443e-05,
        "meta_mean_motion_dot": 4.5e-07,
        "meta_mean_motion_ddot": 0,
        "tle_line1": "1 37214U 10059A   25353.96993294  .00000045  00000+0  47094-4 0  9997",
        "tle_line2": "2 37214  98.9902  33.9978 0021702 337.1336 142.3284 14.14791901782089"
      },
      "geometry": {
        "type": "Point",
        "coordinates": [
          0.08876585650159513,
          74.29196147649098
        ]
      }
    },
    {
      "type": "Feature",
      "properties": {
        "norad_id": 37849,
        "name": "SUOMI NPP",
        "group": "weather",
        "lat": 45.38843181056881,
        "lon": -77.42242429651084,
        "alt_km": 822.1219083992892,
        "timestamp": "2025-12-20T07:33:50.443482+00:00",
        "meta_object_name": "SUOMI NPP",
        "meta_object_id": "2011-061A",
        "meta_epoch": "2025-12-17T23:31:21.474624",
        "meta_mean_motion": 14.19515682,
        "meta_eccentricity": 0.00023932,
        "meta_inclination": 98.7779,
        "meta_ra_of_asc_node": 289.2746,
        "meta_arg_of_pericenter": 111.1248,
        "meta_mean_anomaly": 249.0184,
        "meta_ephemeris_type": 0,
        "meta_classification_type": "U",
        "meta_norad_cat_id": 37849,
        "meta_element_set_no": 999,
        "meta_rev_at_epoch": 73273,
        "meta_bstar": 4.8615036e-05,
        "meta_mean_motion_dot": 5.8e-07,
        "meta_mean_motion_ddot": 0,
        "tle_line1": "1 37849U 11061A   25351.98010966  .00000058  00000+0  48615-4 0  9995",
        "tle_line2": "2 37849  98.7779 289.2746 0002393 111.1248 249.0184 14.19515682732735"
      },
      "geometry": {
        "type": "Point",
        "coordinates": [
          -77.42242429651084,
          45.38843181056881
        ]
      }
    },
    {
      "type": "Feature",
      "properties": {
        "norad_id": 38552,
        "name": "METEOSAT-10 (MSG-3)",
        "group": "weather",
        "lat": 2.6512353212867494,
        "lon": -157.03289541882828,
        "alt_km": 35786.18604811956,
        "timestamp": "2025-12-20T07:33:50.443496+00:00",
        "meta_object_name": "METEOSAT-10 (MSG-3)",
        "meta_object_id": "2012-035B",
        "meta_epoch": "2025-12-19T08:07:49.924128",
        "meta_mean_motion": 1.00276524,
        "meta_eccentricity": 6.93e-05,
        "meta_inclination": 4.2433,
        "meta_ra_of_asc_node": 61.706,
        "meta_arg_of_pericenter": 270.066,
        "meta_mean_anomaly": 238.6463,
        "meta_ephemeris_type": 0,
        "meta_classification_type": "U",
        "meta_norad_cat_id": 38552,
        "meta_element_set_no": 999,
        "meta_rev_at_epoch": 4905,
        "meta_bstar": 0,
        "meta_mean_motion_dot": 1.7e-07,
        "meta_mean_motion_ddot": 0,
        "tle_line1": "1 38552U 12035B   25353.33877227  .00000017  00000+0  00000+0 0  9997",
        "tle_line2": "2 38552   4.2433  61.7060 0000693 270.0660 238.6463  1.00276524 49057"
      },
      "geometry": {
        "type": "Point",
        "coordinates": [
          -157.03289541882828,
          2.6512353212867494
        ]
      }
    },
    {
      "type": "Feature",
      "properties": {
        "norad_id": 38771,
        "name": "METOP-B",
        "group": "weather",
        "lat": -49.355009822878976,
        "lon": 54.39403838292761,
        "alt_km": 829.6952946800584,
        "timestamp": "2025-12-20T07:33:50.443525+00:00",
        "meta_object_name": "METOP-B",
        "meta_object_id": "2012-049A",
        "meta_epoch": "2025-12-19T21:39:47.095488",
        "meta_mean_motion": 14.21410919,
        "meta_eccentricity": 0.00031592,
        "meta_inclination": 98.6789,
        "meta_ra_of_asc_node": 43.7397,
        "meta_arg_of_pericenter": 128.9434,
        "meta_mean_anomaly": 231.2026,
        "meta_ephemeris_type": 0,
        "meta_classification_type": "U",
        "meta_norad_cat_id": 38771,
        "meta_element_set_no": 999,
        "meta_rev_at_epoch": 68779,
        "meta_bstar": 6.5931197e-05,
        "meta_mean_motion_dot": 1.01e-06,
        "meta_mean_motion_ddot": 0,
        "tle_line1": "1 38771U 12049A   25353.90262842  .00000101  00000+0  65931-4 0  9992",
        "tle_line2": "2 38771  98.6789  43.7397 0003159 128.9434 231.2026 14.21410919687792"
      },
      "geometry": {
        "type": "Point",
        "coordinates": [
          54.39403838292761,
          -49.355009822878976
        ]
      }
    },
    {
      "type": "Feature",
      "properties": {
        "norad_id": 39216,
        "name": "INSAT-3D",
        "group": "weather",
        "lat": -1.360784906161106,
        "lon": -27.951188036417378,
        "alt_km": 35786.94110541296,
        "timestamp": "2025-12-20T07:33:50.443539+00:00",
        "meta_object_name": "INSAT-3D",
        "meta_object_id": "2013-038B",
        "meta_epoch": "2025-12-17T17:21:59.330304",
        "meta_mean_motion": 1.00267779,
        "meta_eccentricity": 0.00012009,
        "meta_inclination": 1.4572,
        "meta_ra_of_asc_node": 84.9421,
        "meta_arg_of_pericenter": 166.0293,
        "meta_mean_anomaly": 225.6028,
        "meta_ephemeris_type": 0,
        "meta_classification_type": "U",
        "meta_norad_cat_id": 39216,
        "meta_element_set_no": 999,
        "meta_rev_at_epoch": 4526,
        "meta_bstar": 0,
        "meta_mean_motion_dot": -3.16e-06,
        "meta_mean_motion_ddot": 0,
        "tle_line1": "1 39216U 13038B   25351.72360336 -.00000316  00000+0  00000+0 0  9991",
        "tle_line2": "2 39216   1.4572  84.9421 0001200 166.0293 225.6028  1.00267779 45261"
      },
      "geometry": {
        "type": "Point",
        "coordinates": [
          -27.951188036417378,
          -1.360784906161106
        ]
      }
    },
    {
      "type": "Feature",
      "properties": {
        "norad_id": 39260,
        "name": "FENGYUN 3C",
        "group": "weather",
        "lat": 40.49975675070024,
        "lon": -35.6928688337643,
        "alt_km": 843.9139172657815,
        "timestamp": "2025-12-20T07:33:50.443552+00:00",
        "meta_object_name": "FENGYUN 3C",
        "meta_object_id": "2013-052A",
        "meta_epoch": "2025-12-19T22:53:20.779872",
        "meta_mean_motion": 14.15698427,
        "meta_eccentricity": 0.00146891,
        "meta_inclination": 98.477,
        "meta_ra_of_asc_node": 331.2811,
        "meta_arg_of_pericenter": 175.0187,
        "meta_mean_anomaly": 185.1136,
        "meta_ephemeris_type": 0,
        "meta_classification_type": "U",
        "meta_norad_cat_id": 39260,
        "meta_element_set_no": 999,
        "meta_rev_at_epoch": 63320,
        "meta_bstar": 4.695231e-05,
        "meta_mean_motion_dot": 5.1e-07,
        "meta_mean_motion_ddot": 0,
        "tle_line1": "1 39260U 13052A   25353.95371273  .00000051  00000+0  46952-4 0  9991",
        "tle_line2": "2 39260  98.4770 331.2811 0014689 175.0187 185.1136 14.15698427633209"
      },
      "geometry": {
        "type": "Point",
        "coordinates": [
          -35.6928688337643,
          40.49975675070024
        ]
      }
    }
  ]
}